CHINASAT 1C (ZX 1C)     
1 41103U 15073A   16202.09306756 -.00000157  00000-0  00000+0 0  9995
2 41103   0.0590 238.9360 0001461 281.7627 252.6887  1.00273361  2385
ELEKTRO-L 2             
1 41105U 15074A   16202.10228564 -.00000120  00000-0  00000+0 0  9990
2 41105   0.0274 295.1919 0002034 181.8776 295.8921  1.00270895  2234
COSMOS 2513             
1 41121U 15075A   16202.09804461 -.00000143  00000-0  00000+0 0  9998
2 41121   0.0350  66.4646 0002586  57.4275 289.9471  1.00271629  2316
EXPRESS-AMU1            
1 41191U 15082A   16201.59789516  .00000151  00000-0  00000+0 0  9998
2 41191   0.0216  23.5463 0002406  89.8990  75.6906  1.00270879  2217
GAOFEN 4                
1 41194U 15083A   16201.90114329 -.00000340  00000-0  00000+0 0  9992
2 41194   0.1925 253.0537 0002118 327.0410 148.1496  1.00273096  2207
BELINTERSAT-1           
1 41238U 16001A   16201.66409302  .00000102  00000-0  10000-3 0  9993
2 41238   0.0370 272.7782 0002098 185.7232 129.9543  1.00269163  1981
IRNSS-1E                
1 41241U 16003A   16201.19820973 -.00000301  00000-0  00000+0 0  9995
2 41241  28.2775 120.5469 0018825 185.2698 174.6476  1.00276826  1902
INTELSAT 29E (IS-29E)   
1 41308U 16004A   16201.31252008 -.00000286  00000-0  00000+0 0  9994
2 41308   0.0161  29.6118 0002323  89.9737 240.4376  1.00267537  1868
EUTELSAT 9B             
1 41310U 16005A   16201.14899298  .00000058  00000-0  00000+0 0  9993
2 41310   0.0501 169.3755 0001288 223.3601 327.2688  1.00274948  1810
EUTELSAT 65 WEST A      
1 41382U 16014A   16201.35454479 -.00000281  00000-0  00000+0 0  9992
2 41382   0.0339  20.3416 0001634  95.8878 243.7840  1.00272538  1355
IRNSS-1F                
1 41384U 16015A   16199.84422637  .00000160  00000-0  00000-0 0  9992
2 41384   4.8496 272.3059 0022098 181.2865 178.9816  1.00279439  1380
BEIDOU IGSO 6           
1 41434U 16021A   16201.52773191 -.00000130  00000-0  10000-3 0  9990
2 41434  55.0988  76.0715 0024537 175.5515 330.2428  1.00265591  1191
IRNSS-1G                
1 41469U 16027A   16200.57616877 -.00000334  00000-0  00000+0 0  9996
2 41469   4.9262 273.4517 0001388 168.9501 191.3237  1.00270130   895
JCSAT-14                
1 41471U 16028A   16200.74739846 -.00000169  00000-0  00000+0 0  9997
2 41471   0.0586 255.1119 0002656 219.0488 245.8637  1.00271163   795
BRISAT                  
1 41591U 16039A   16201.75401686 -.00000201  00000-0  00000+0 0  9999
2 41591   0.0176 146.0343 0000951 300.7753 273.2012  1.00266842   351
ECHOSTAR 18             
1 41592U 16039B   16201.36014226 -.00000276  00000-0  00000+0 0  9999
2 41592   0.0458 211.3301 0002401 255.5331 253.1596  1.00270205   358
